MALLIGYONG-1            
1 58400U 23179A   23358.17257201  .00009174  00000+0  40796-3 0  9994
2 58400  97.4266 242.5188 0016203 157.9839 202.2097 15.21605655  4953
